start=new Date('2023-06-09T00:00:00.000Z').valueOf();
sats=[{"SEMIMAJOR_AXIS":"6925.448","EPHEMERIS_TYPE":"0","CENTER_NAME":"EARTH","BSTAR":"0.00077476000000","EPOCH":"2023-06-08T12:37:12.027360","SITE":"AFETR","GP_ID":"233479693","RCS_SIZE":"LARGE","MEAN_MOTION":"15.06367429","MEAN_ANOMALY":"264.0736","REF_FRAME":"TEME","MEAN_MOTION_DDOT":"0.0000000000000","FILE":"3928120","PERIAPSIS":"546.303","APOAPSIS":"548.324","CLASSIFICATION_TYPE":"U","ELEMENT_SET_NO":"999","OBJECT_ID":"2021-009AT","COUNTRY_CODE":"US","PERIOD":"95.594","TLE_LINE2":"2 47589  53.0527 213.9755 0001459  96.0419 264.0736 15.06367429129909","REV_AT_EPOCH":"12990","TIME_SYSTEM":"UTC","ARG_OF_PERICENTER":"96.0419","MEAN_ELEMENT_THEORY":"SGP4","RA_OF_ASC_NODE":"213.9755","NORAD_CAT_ID":"47589","MEAN_MOTION_DOT":"0.00011267","LAUNCH_DATE":"2021-02-04","TLE_LINE1":"1 47589U 21009AT  23159.52583365  .00011267  00000-0  77476-3 0  9993","INCLINATION":"53.0527","OBJECT_NAME":"STARLINK-1994","OBJECT_TYPE":"PAYLOAD","ECCENTRICITY":"0.00014590","DECAY_DATE":null},{"COUNTRY_CODE":"US","ELEMENT_SET_NO":"999","OBJECT_ID":"2021-009AU","CLASSIFICATION_TYPE":"U","APOAPSIS":"547.923","PERIAPSIS":"546.516","TIME_SYSTEM":"UTC","REV_AT_EPOCH":"12902","TLE_LINE2":"2 47590  53.0514 233.7160 0001016 101.5415 258.5688 15.06398085129023","PERIOD":"95.592","MEAN_ANOMALY":"258.5688","MEAN_MOTION":"15.06398085","RCS_SIZE":"LARGE","FILE":"3928007","MEAN_MOTION_DDOT":"0.0000000000000","REF_FRAME":"TEME","SITE":"AFETR","EPOCH":"2023-06-08T13:59:26.340864","BSTAR":"0.00003719800000","GP_ID":"233469548","SEMIMAJOR_AXIS":"6925.354","CENTER_NAME":"EARTH","EPHEMERIS_TYPE":"0","OBJECT_TYPE":"PAYLOAD","ECCENTRICITY":"0.00010160","DECAY_DATE":null,"LAUNCH_DATE":"2021-02-04","TLE_LINE1":"1 47590U 21009AU  23159.58294376  .00000273  00000-0  37198-4 0  9995","MEAN_MOTION_DOT":"0.00000273","OBJECT_NAME":"STARLINK-1995","INCLINATION":"53.0514","MEAN_ELEMENT_THEORY":"SGP4","NORAD_CAT_ID":"47590","RA_OF_ASC_NODE":"233.7160","ARG_OF_PERICENTER":"101.5415"},{"SEMIMAJOR_AXIS":"6925.375","EPHEMERIS_TYPE":"0","CENTER_NAME":"EARTH","BSTAR":"0.00000609740000","EPOCH":"2023-06-08T12:31:52.321440","SITE":"AFETR","GP_ID":"233469796","RCS_SIZE":"LARGE","MEAN_MOTION":"15.06391440","MEAN_ANOMALY":"284.2826","REF_FRAME":"TEME","FILE":"3928007","MEAN_MOTION_DDOT":"0.0000000000000","APOAPSIS":"547.908","PERIAPSIS":"546.571","CLASSIFICATION_TYPE":"U","ELEMENT_SET_NO":"999","OBJECT_ID":"2021-009AV","COUNTRY_CODE":"US","PERIOD":"95.593","TLE_LINE2":"2 47591  53.0526 213.9928 0000965  75.8271 284.2826 15.06391440129291","REV_AT_EPOCH":"12929","TIME_SYSTEM":"UTC","ARG_OF_PERICENTER":"75.8271","MEAN_ELEMENT_THEORY":"SGP4","RA_OF_ASC_NODE":"213.9928","NORAD_CAT_ID":"47591","MEAN_MOTION_DOT":"-0.00000190","LAUNCH_DATE":"2021-02-04","TLE_LINE1":"1 47591U 21009AV  23159.52213335 -.00000190  00000-0  60974-5 0  9994","INCLINATION":"53.0526","OBJECT_NAME":"STARLINK-1996","OBJECT_TYPE":"PAYLOAD","ECCENTRICITY":"0.00009650","DECAY_DATE":null},{"SEMIMAJOR_AXIS":"6925.364","EPHEMERIS_TYPE":"0","CENTER_NAME":"EARTH","BSTAR":"-0.00009566400000","SITE":"AFETR","EPOCH":"2023-06-08T14:52:30.876384","GP_ID":"233500705","RCS_SIZE":"LARGE","MEAN_ANOMALY":"232.7825","MEAN_MOTION":"15.06395054","MEAN_MOTION_DDOT":"0.0000000000000","FILE":"3928201","REF_FRAME":"TEME","CLASSIFICATION_TYPE":"U","PERIAPSIS":"546.621","APOAPSIS":"547.837","COUNTRY_CODE":"US","ELEMENT_SET_NO":"999","OBJECT_ID":"2021-009AW","REV_AT_EPOCH":"12902","TLE_LINE2":"2 47592  53.0534 233.5537 0000878 127.3244 232.7825 15.06395054129024","PERIOD":"95.592","TIME_SYSTEM":"UTC","ARG_OF_PERICENTER":"127.3244","MEAN_ELEMENT_THEORY":"SGP4","RA_OF_ASC_NODE":"233.5537","NORAD_CAT_ID":"47592","MEAN_MOTION_DOT":"-0.00001706","TLE_LINE1":"1 47592U 21009AW  23159.61980181 -.00001706  00000-0 -95664-4 0  9993","LAUNCH_DATE":"2021-02-04","INCLINATION":"53.0534","OBJECT_NAME":"STARLINK-1997","OBJECT_TYPE":"PAYLOAD","DECAY_DATE":null,"ECCENTRICITY":"0.00008780"},{"REF_FRAME":"TEME","MEAN_MOTION_DDOT":"0.0000000000000","FILE":"3928007","RCS_SIZE":"LARGE","MEAN_MOTION":"15.06400636","MEAN_ANOMALY":"254.2619","REV_AT_EPOCH":"12902","TLE_LINE2":"2 47593  53.0507 233.6860 0000914 105.8470 254.2619 15.06400636129021","PERIOD":"95.592","TIME_SYSTEM":"UTC","PERIAPSIS":"546.579","APOAPSIS":"547.845","CLASSIFICATION_TYPE":"U","ELEMENT_SET_NO":"999","OBJECT_ID":"2021-009AX","COUNTRY_CODE":"US","EPHEMERIS_TYPE":"0","CENTER_NAME":"EARTH","SEMIMAJOR_AXIS":"6925.347","GP_ID":"233469297","BSTAR":"0.00058028000000","EPOCH":"2023-06-08T14:10:03.514944","SITE":"AFETR","INCLINATION":"53.0507","OBJECT_NAME":"STARLINK-1998","MEAN_MOTION_DOT":"0.00008373","LAUNCH_DATE":"2021-02-04","TLE_LINE1":"1 47593U 21009AX  23159.59031846  .00008373  00000-0  58028-3 0  9993","DECAY_DATE":null,"ECCENTRICITY":"0.00009140","OBJECT_TYPE":"PAYLOAD","ARG_OF_PERICENTER":"105.8470","RA_OF_ASC_NODE":"233.6860","NORAD_CAT_ID":"47593","MEAN_ELEMENT_THEORY":"SGP4"},{"REF_FRAME":"TEME","MEAN_MOTION_DDOT":"0.0000000000000","FILE":"3928201","RCS_SIZE":"LARGE","MEAN_MOTION":"15.06392490","MEAN_ANOMALY":"277.0500","TLE_LINE2":"2 47594  53.0524 233.5365 0000803  83.0580 277.0500 15.06392490129026","REV_AT_EPOCH":"12902","PERIOD":"95.593","TIME_SYSTEM":"UTC","PERIAPSIS":"546.680","APOAPSIS":"547.793","CLASSIFICATION_TYPE":"U","OBJECT_ID":"2021-009AY","ELEMENT_SET_NO":"999","COUNTRY_CODE":"US","EPHEMERIS_TYPE":"0","CENTER_NAME":"EARTH","SEMIMAJOR_AXIS":"6925.372","GP_ID":"233499704","BSTAR":"0.00031520000000","EPOCH":"2023-06-08T14:57:49.743360","SITE":"AFETR","INCLINATION":"53.0524","OBJECT_NAME":"STARLINK-1999","MEAN_MOTION_DOT":"0.00004416","LAUNCH_DATE":"2021-02-04","TLE_LINE1":"1 47594U 21009AY  23159.62349240  .00004416  00000-0  31520-3 0  9990","DECAY_DATE":null,"ECCENTRICITY":"0.00008030","OBJECT_TYPE":"PAYLOAD","ARG_OF_PERICENTER":"83.0580","RA_OF_ASC_NODE":"233.5365","NORAD_CAT_ID":"47594","MEAN_ELEMENT_THEORY":"SGP4"},{"INCLINATION":"53.0531","OBJECT_NAME":"STARLINK-2000","MEAN_MOTION_DOT":"-0.00001926","LAUNCH_DATE":"2021-02-04","TLE_LINE1":"1 47595U 21009AZ  23159.47605313 -.00001926  00000-0 -11052-3 0  9993","ECCENTRICITY":"0.00011010","DECAY_DATE":null,"OBJECT_TYPE":"PAYLOAD","ARG_OF_PERICENTER":"87.4325","RA_OF_ASC_NODE":"234.1982","NORAD_CAT_ID":"47595","MEAN_ELEMENT_THEORY":"SGP4","FILE":"3928120","MEAN_MOTION_DDOT":"0.0000000000000","REF_FRAME":"TEME","RCS_SIZE":"LARGE","MEAN_ANOMALY":"272.6790","MEAN_MOTION":"15.06384676","TLE_LINE2":"2 47595  53.0531 234.1982 0001101  87.4325 272.6790 15.06384676129607","PERIOD":"95.593","REV_AT_EPOCH":"12960","TIME_SYSTEM":"UTC","CLASSIFICATION_TYPE":"U","APOAPSIS":"548.023","PERIAPSIS":"546.498","COUNTRY_CODE":"US","ELEMENT_SET_NO":"999","OBJECT_ID":"2021-009AZ","EPHEMERIS_TYPE":"0","CENTER_NAME":"EARTH","SEMIMAJOR_AXIS":"6925.396","GP_ID":"233479702","BSTAR":"-0.00011052000000","SITE":"AFETR","EPOCH":"2023-06-08T11:25:30.990432"},{"ARG_OF_PERICENTER":"88.4948","RA_OF_ASC_NODE":"234.1804","NORAD_CAT_ID":"47596","MEAN_ELEMENT_THEORY":"SGP4","INCLINATION":"53.0523","OBJECT_NAME":"STARLINK-2001","MEAN_MOTION_DOT":"0.00002332","TLE_LINE1":"1 47596U 21009BA  23159.47973541  .00002332  00000-0  17544-3 0  9997","LAUNCH_DATE":"2021-02-04","ECCENTRICITY":"0.00010110","DECAY_DATE":null,"OBJECT_TYPE":"PAYLOAD","EPHEMERIS_TYPE":"0","CENTER_NAME":"EARTH","SEMIMAJOR_AXIS":"6925.363","GP_ID":"233468547","BSTAR":"0.00017544000000","EPOCH":"2023-06-08T11:30:49.139424","SITE":"AFETR","REF_FRAME":"TEME","FILE":"3928007","MEAN_MOTION_DDOT":"0.0000000000000","RCS_SIZE":"LARGE","MEAN_MOTION":"15.06395317","MEAN_ANOMALY":"271.6156","TLE_LINE2":"2 47596  53.0523 234.1804 0001011  88.4948 271.6156 15.06395317129007","PERIOD":"95.592","REV_AT_EPOCH":"12900","TIME_SYSTEM":"UTC","PERIAPSIS":"546.528","APOAPSIS":"547.928","CLASSIFICATION_TYPE":"U","ELEMENT_SET_NO":"999","OBJECT_ID":"2021-009BA","COUNTRY_CODE":"US"},{"RA_OF_ASC_NODE":"234.2114","NORAD_CAT_ID":"47597","MEAN_ELEMENT_THEORY":"SGP4","ARG_OF_PERICENTER":"128.1682","ECCENTRICITY":"0.00007670","DECAY_DATE":null,"OBJECT_TYPE":"PAYLOAD","INCLINATION":"53.0516","OBJECT_NAME":"STARLINK-2002","MEAN_MOTION_DOT":"-0.00004180","TLE_LINE1":"1 47597U 21009BB  23159.47236401 -.00004180  00000-0 -26188-3 0  9994","LAUNCH_DATE":"2021-02-04","GP_ID":"233479208","BSTAR":"-0.00026188000000","EPOCH":"2023-06-08T11:20:12.250464","SITE":"AFETR","EPHEMERIS_TYPE":"0","CENTER_NAME":"EARTH","SEMIMAJOR_AXIS":"6925.332","REV_AT_EPOCH":"12960","TLE_LINE2":"2 47597  53.0516 234.2114 0000767 128.1682 231.9376 15.06405283129602","PERIOD":"95.592","TIME_SYSTEM":"UTC","APOAPSIS":"547.729","PERIAPSIS":"546.666","CLASSIFICATION_TYPE":"U","ELEMENT_SET_NO":"999","OBJECT_ID":"2021-009BB","COUNTRY_CODE":"US","REF_FRAME":"TEME","MEAN_MOTION_DDOT":"0.0000000000000","FILE":"3928138","RCS_SIZE":"LARGE","MEAN_MOTION":"15.06405283","MEAN_ANOMALY":"231.9376"},{"GP_ID":"233469549","BSTAR":"0.00000384500000","SITE":"AFETR","EPOCH":"2023-06-08T09:59:16.357056","EPHEMERIS_TYPE":"0","CENTER_NAME":"EARTH","SEMIMAJOR_AXIS":"6925.363","REV_AT_EPOCH":"12942","TLE_LINE2":"2 47598  53.0531 204.4701 0000912  80.5436 279.5656 15.06395229129428","PERIOD":"95.592","TIME_SYSTEM":"UTC","CLASSIFICATION_TYPE":"U","PERIAPSIS":"546.597","APOAPSIS":"547.860","COUNTRY_CODE":"US","ELEMENT_SET_NO":"999","OBJECT_ID":"2021-009BC","MEAN_MOTION_DDOT":"0.0000000000000","FILE":"3928007","REF_FRAME":"TEME","RCS_SIZE":"LARGE","MEAN_ANOMALY":"279.5656","MEAN_MOTION":"15.06395229","RA_OF_ASC_NODE":"204.4701","NORAD_CAT_ID":"47598","MEAN_ELEMENT_THEORY":"SGP4","ARG_OF_PERICENTER":"80.5436","DECAY_DATE":null,"ECCENTRICITY":"0.00009120","OBJECT_TYPE":"PAYLOAD","INCLINATION":"53.0531","OBJECT_NAME":"STARLINK-2003","MEAN_MOTION_DOT":"-0.00000224","TLE_LINE1":"1 47598U 21009BC  23159.41616154 -.00000224  00000-0  38450-5 0  9997","LAUNCH_DATE":"2021-02-04"}];
